OBJECT_NAME,OBJECT_ID,EPOCH,MEAN_MOTION,ECCENTRICITY,INCLINATION,RA_OF_ASC_NODE,ARG_OF_PERICENTER,MEAN_ANOMALY,EPHEMERIS_TYPE,CLASSIFICATION_TYPE,NORAD_CAT_ID,ELEMENT_SET_NO,REV_AT_EPOCH,BSTAR,MEAN_MOTION_DOT,MEAN_MOTION_DDOT
SL-16 R/B,1996-051B,2026-06-15T13:03:34.361280,14.12445331,.0015329,70.7640,328.1260,339.3566,20.6933,0,U,24298,999,53546,.82254E-4,.103E-5,0
ORBVIEW 2 (SEASTAR),1997-037A,2026-06-15T11:40:41.503008,14.35552543,.0003144,98.8685,333.4585,119.5446,240.6052,0,U,24883,999,52250,.744E-4,.167E-5,0
SL-16 R/B,1998-043G,2026-06-15T11:14:41.938944,14.26068349,.0010943,98.8363,120.6129,90.7981,269.4452,0,U,25400,999,45292,.30141E-4,.27E-6,0
SL-16 R/B,1998-045B,2026-06-15T12:58:38.603712,14.16203809,.0009467,71.0119,335.7925,243.5326,116.4827,0,U,25407,999,44095,-.10012E-3,-.246E-5,0
ISS (ZARYA),1998-067A,2026-06-15T12:17:49.454880,15.49243792,.000485,51.6337,308.3821,189.0196,171.0706,0,U,25544,999,57149,.14626E-3,.7685E-4,0
CZ-4B R/B,1999-025C,2026-06-15T10:49:04.355040,14.18283140,.0038136,98.6484,208.3329,64.5238,26.2800,0,U,25732,999,40202,.43534E-4,.48E-6,0
OKEAN-O,1999-039A,2026-06-15T04:26:02.472576,14.80464977,.000167,97.9318,225.0056,73.5258,286.6137,0,U,25860,999,44881,.73267393E-4,.508E-5,0
SL-16 R/B,1999-039B,2026-06-15T09:51:47.166048,14.81843547,.0013558,97.9839,225.2790,303.2339,56.7573,0,U,25861,999,45133,.59766E-4,.419E-5,0
DELTA 2 R/B,1999-041E,2026-06-15T13:08:22.217568,14.12013801,.0500849,51.7657,270.3469,277.1692,77.2575,0,U,25876,999,37685,.13968E-3,.633E-5,0
HELIOS 1B,1999-064A,2026-06-15T11:56:24.687744,14.88002633,.0002478,98.1616,71.5884,93.6315,266.5184,0,U,25977,999,69980,.13899E-3,.1217E-4,0
TERRA,1999-068A,2026-06-15T12:28:05.301120,14.61101880,.0001449,97.9457,216.1319,195.5293,270.7841,0,U,25994,999,40936,.74567E-4,.322E-5,0
SL-16 R/B,2000-006B,2026-06-15T12:15:39.498912,14.15834162,.0015451,71.0022,252.1498,25.5316,334.6566,0,U,26070,999,36240,-.44698E-4,-.136E-5,0
TITAN 4B R/B,2000-047B,2026-06-15T11:17:51.569664,15.10188829,.0045691,67.9879,125.4044,288.9464,70.6736,0,U,26474,999,40767,.16785E-3,.2675E-4,0
ENVISAT,2002-009A,2026-06-15T10:49:17.251968,14.39064431,.0001348,98.3834,117.8080,88.9024,21.5001,0,U,27386,999,27323,.3382E-4,.62E-6,0
IDEFIX & ARIANE 42P R/B,2002-021B,2026-06-15T10:50:14.580096,14.31081321,.0010569,98.5943,103.9534,259.6189,100.3802,0,U,27422,999,25800,.78517E-4,.163E-5,0
AQUA,2002-022A,2026-06-15T11:44:53.599200,14.62155771,.0001166,98.4276,135.7384,53.3864,56.6507,0,U,27424,999,28302,.13866E-3,.648E-5,0
CZ-4B R/B,2002-024C,2026-06-15T09:23:48.541056,14.14564117,.0051197,98.8701,219.2235,105.2219,266.2678,0,U,27432,999,24305,.45348E-4,.44E-6,0
MIDORI II (ADEOS-II),2002-056A,2026-06-15T10:59:33.506880,14.29348747,.000222,98.7878,125.7031,79.4956,280.6475,0,U,27597,999,22426,.96402E-4,.2E-5,0
H-2A R/B,2002-056E,2026-06-15T11:39:56.963808,14.33821348,.0069111,98.3311,123.2225,229.7060,240.4324,0,U,27601,999,22812,.65202E-4,.144E-5,0
CZ-4B R/B,2003-049C,2026-06-15T12:17:29.081760,14.55099186,.004701,98.6896,165.2920,293.8381,65.7892,0,U,28059,999,20082,.67076E-4,.241E-5,0
CZ-2C R/B,2004-012C,2026-06-15T04:41:18.254688,15.78647090,.00091811,97.7094,241.6267,291.9610,68.0680,0,U,28222,999,21958,.47829767E-3,.83953E-3,0
SL-16 R/B,2004-021B,2026-06-15T07:44:47.404896,14.14609143,.0007346,71.0010,27.6024,257.1070,102.9232,0,U,28353,999,13664,-.11416E-3,-.267E-5,0
CZ-4B R/B,2004-035C,2026-06-15T08:49:10.606368,15.30603692,.0030085,97.3363,199.4614,344.6650,15.3676,0,U,28415,999,19484,.22251E-3,.6596E-4,0
CZ-2C R/B,2004-046B,2026-06-15T12:12:31.768128,14.27026157,.0138408,98.1947,75.3944,225.2654,133.7195,0,U,28480,999,12245,.38071E-4,.61E-6,0
ARIANE 5 R/B,2004-049H,2026-06-15T10:42:35.517024,14.85446882,.0084618,98.2719,338.6320,35.0210,325.6528,0,U,28499,999,16030,.67697E-4,.557E-5,0
CZ-2D R/B,2005-024B,2026-06-15T11:56:53.166048,15.69388180,.0003656,97.3477,185.8423,58.3529,301.8089,0,U,28738,999,15507,.41728E-3,.48917E-3,0
ALOS (DAICHI),2006-002A,2026-06-15T10:57:59.855328,14.70047041,.0001524,98.1323,122.0297,58.2698,301.8656,0,U,28931,999,8784,.15631E-3,.889E-5,0
H-2A R/B,2006-002B,2026-06-15T09:45:35.321184,15.18040833,.0049561,98.2557,322.0742,268.5345,91.0209,0,U,28932,999,10925,.24923E-3,.5153E-4,0
RESURS-DK 1,2006-021A,2026-06-15T12:21:34.671168,15.13212840,.000686,69.9340,343.8813,293.1585,66.8858,0,U,29228,999,10232,.12951E-3,.2198E-4,0
CZ-4B R/B,2006-046C,2026-06-15T01:51:13.780512,15.17770657,.00310286,97.5453,210.6906,290.4150,69.3752,0,U,29507,999,7481,.19205799E-3,.3856E-4,0
CZ-2C R/B,2007-010B,2026-06-15T07:10:08.968224,14.20275848,.0059135,98.4096,274.7419,11.6203,348.6324,0,U,31114,999,99357,.47363E-4,.62E-6,0
